IRIDIUM 126             
1 42809U 17039G   24299.83706685  .00000107  00000+0  31237-4 0  9999
2 42809  86.3966 244.0533 0002332  91.9843 268.1620 14.34214851384045
IRIDIUM 124             
1 42810U 17039H   24299.75662036  .00001483  00000+0  43489-3 0  9992
2 42810  86.4555 180.9188 0002509  74.0271 286.1206 14.43279719388654
IRIDIUM 128             
1 42811U 17039J   24299.68826363  .00000487  00000+0  16680-3 0  9996
2 42811  86.3917 275.6540 0002456  89.7810 270.3667 14.34222686384050
IRIDIUM 121             
1 42812U 17039K   24299.92585848  .00000670  00000+0  23222-3 0  9998
2 42812  86.3968 244.0393 0002101  85.5813 274.5623 14.34226456383930
IRIDIUM 133             
1 42955U 17061A   24299.85951809  .00000108  00000+0  31462-4 0  9999
2 42955  86.3917 275.6849 0002140  87.9789 272.1652 14.34220101368872
IRIDIUM 100             
1 42956U 17061B   24299.92294538 -.00000040  00000+0 -21339-4 0  9996
2 42956  86.3911 275.5917 0002286  86.9425 273.2032 14.34220022368886
IRIDIUM 122             
1 42957U 17061C   24299.68192324  .00000445  00000+0  15199-3 0  9993
2 42957  86.3917 275.6906 0002319  92.3462 267.8000 14.34222565368856
IRIDIUM 129             
1 42958U 17061D   24299.77706167  .00000253  00000+0  83195-4 0  9999
2 42958  86.3916 275.7117 0002006  90.7409 269.4017 14.34221404368887
